NORAD_CAT_ID,OBJECT_NAME,OBJECT_TYPE,EPOCH,MEAN_MOTION,ECCENTRICITY,INCLINATION,RA_OF_ASC_NODE,ARG_OF_PERICENTER,MEAN_ANOMALY,BSTAR,MEAN_MOTION_DOT,MEAN_MOTION_DDOT,TLE_LINE0,TLE_LINE1,TLE_LINE2,SEMIMAJOR_AXIS,PERIOD,APOGEE,PERIGEE,DECAYED
51780.0,STARLINK-3617,PAYLOAD,2023-01-20 09:54:32,15.08845065,0.0001273,53.2152,75.9894,69.735,290.3779,0.0022291,0.00035371,0.0,0 STARLINK-3617,1 51780U 22017N   23020.41287963  .00035371  00000-0  22291-2 0  9997,2 51780  53.2152  75.9894 0001273  69.7350 290.3779 15.08845065 49671,6917.865,95.437,540.611,538.849,0.0
51780.0,STARLINK-3617,PAYLOAD,2023-01-20 21:02:15,15.08848967,0.0001725,53.2158,73.9084,67.8756,292.2419,0.0035126999999999,0.00056076,0.0,0 STARLINK-3617,1 51780U 22017N   23020.87656544  .00056076  00000-0  35127-2 0  9999,2 51780  53.2158  73.9084 0001725  67.8756 292.2419 15.08848967 51430,6917.853,95.437,540.911,538.525,0.0
51780.0,STARLINK-3617,PAYLOAD,2023-01-21 06:34:34,15.08843053,0.0001312,53.2153,72.1245,69.542,290.5713,0.0016277,0.00025714,0.0,0 STARLINK-3617,1 51780U 22017N   23021.27400641  .00025714  00000-0  16277-2 0  9999,2 51780  53.2153  72.1245 0001312  69.5420 290.5713 15.08843053 51499,6917.871,95.437,540.644,538.828,0.0
51780.0,STARLINK-3617,PAYLOAD,2023-01-22 03:14:35,15.08867518,0.0001614,53.2151,68.2573,76.9894,283.1279,0.0025201,0.00040078,0.0,0 STARLINK-3617,1 51780U 22017N   23022.13512941  .00040078  00000-0  25201-2 0  9999,2 51780  53.2151  68.2573 0001614  76.9894 283.1279 15.08867518 51621,6917.795999999999,95.436,540.778,538.545,0.0
51780.0,STARLINK-3617,PAYLOAD,2023-01-22 09:36:07,15.08860638,0.0001257,53.2153,67.0679,90.0853,270.0283,0.0022043,0.00034988,0.0,0 STARLINK-3617,1 51780U 22017N   23022.40008531  .00034988  00000-0  22043-2 0  9998,2 51780  53.2153  67.0679 0001257  90.0853 270.0283 15.08860638 51662,6917.816999999999,95.436,540.552,538.813,0.0
51780.0,STARLINK-3617,PAYLOAD,2023-01-23 03:05:22,15.08844904,6.14e-05,53.2158,63.7966,78.6563,281.4498,0.0014301,0.00022548,0.0,0 STARLINK-3617,1 51780U 22017N   23023.12873052  .00022548  00000-0  14301-2 0  9993,2 51780  53.2158  63.7966 0000614  78.6563 281.4498 15.08844904 51779,6917.865,95.437,540.155,539.306,0.0
51780.0,STARLINK-3617,PAYLOAD,2023-01-23 18:59:13,15.08846309,0.000159,53.2163,60.8234,104.1056,256.0112,0.0013783,0.0002171999999999,0.0,0 STARLINK-3617,1 51780U 22017N   23023.79113276  .00021720  00000-0  13783-2 0  9995,2 51780  53.2163  60.8234 0001590 104.1056 256.0112 15.08846309 51870,6917.861,95.437,540.826,538.626,0.0
51780.0,STARLINK-3617,PAYLOAD,2023-01-24 06:06:56,15.088409400000002,0.0001535,53.2161,58.7424,101.3036,258.8129,0.0012026,0.00018904,0.0,0 STARLINK-3617,1 51780U 22017N   23024.25481596  .00018904  00000-0  12026-2 0  9999,2 51780  53.2161  58.7424 0001535 101.3036 258.8129 15.08840940 51942,6917.878000000001,95.437,540.804,538.681,0.0
51780.0,STARLINK-3617,PAYLOAD,2023-01-24 18:50:01,15.08839711,0.000152,53.2155,56.3636,99.61,260.5064,0.00062377,9.653e-05,0.0,0 STARLINK-3617,1 51780U 22017N   23024.78473774  .00009653  00000-0  62377-3 0  9992,2 51780  53.2155  56.3636 0001520  99.6100 260.5064 15.08839711 52021,6917.880999999999,95.438,540.798,538.695,0.0
51780.0,STARLINK-3617,PAYLOAD,2023-01-25 09:08:29,15.08835398,0.0001558,53.2162,53.6855,106.5851,253.5312,9.8329e-05,1.277e-05,0.0,0 STARLINK-3617,1 51780U 22017N   23025.38089984  .00001277  00000-0  98329-4 0  9996,2 51780  53.2162  53.6855 0001558 106.5851 253.5312 15.08835398 52119,6917.894,95.438,540.837,538.682,0.0
51780.0,STARLINK-3617,PAYLOAD,2023-01-26 08:59:16,15.08849674,0.0001313,53.2159,49.2246,98.2941,261.82,0.00039644,6.029e-05,0.0,0 STARLINK-3617,1 51780U 22017N   23026.37449674  .00006029  00000-0  39644-3 0  9996,2 51780  53.2159  49.2246 0001313  98.2941 261.8200 15.08849674 50574,6917.851,95.437,540.624,538.808,0.0
51780.0,STARLINK-3617,PAYLOAD,2023-01-27 00:53:07,15.08846172,0.0001261,53.2164,46.2512,106.1766,253.9365,0.00025421,3.761e-05,0.0,0 STARLINK-3617,1 51780U 22017N   23027.03689733  .00003761  00000-0  25421-3 0  9990,2 51780  53.2164  46.2512 0001261 106.1766 253.9365 15.08846172 52362,6917.861999999999,95.437,540.599,538.854,0.0
51780.0,STARLINK-3617,PAYLOAD,2023-01-27 07:14:40,15.08846227,0.0001199,53.2157,45.0608,100.6175,259.4952,0.00017413,2.485e-05,0.0,0 STARLINK-3617,1 51780U 22017N   23027.30185623  .00002485  00000-0  17413-3 0  9993,2 51780  53.2157  45.0608 0001199 100.6175 259.4952 15.08846227 50711,6917.861,95.437,540.556,538.8969999999999,0.0
51780.0,STARLINK-3617,PAYLOAD,2023-01-28 05:30:04,15.08841711,0.0001192,53.216,40.897,98.6528,261.4599,2.261e-05,7.2e-07,0.0,0 STARLINK-3617,1 51780U 22017N   23028.22921848  .00000072  00000-0  22610-4 0  9998,2 51780  53.2160  40.8970 0001192  98.6528 261.4599 15.08841711 52547,6917.875,95.437,540.565,538.9159999999999,0.0
51780.0,STARLINK-3617,PAYLOAD,2023-01-28 07:05:27,15.08843018,0.0001203,53.2158,40.5996,100.2025,259.9103,4.2996e-05,3.97e-06,0.0,0 STARLINK-3617,1 51780U 22017N   23028.29545764  .00000397  00000-0  42996-4 0  9993,2 51780  53.2158  40.5996 0001203 100.2025 259.9103 15.08843018 50862,6917.871,95.437,540.568,538.904,0.0
51780.0,STARLINK-3617,PAYLOAD,2023-01-28 21:23:55,15.0882898,0.0001246,53.2165,37.9236,106.2377,253.8752,0.00024011,3.534e-05,0.0,0 STARLINK-3617,1 51780U 22017N   23028.89161979  .00003534  00000-0  24011-3 0  9994,2 51780  53.2165  37.9236 0001246 106.2377 253.8752 15.08828980 50954,6917.914,95.438,540.641,538.917,0.0
51780.0,STARLINK-3617,PAYLOAD,2023-01-29 06:56:14,15.08838145,0.0001201,53.2165,36.1396,101.2812,258.8315,0.00020067,2.907e-05,0.0,0 STARLINK-3617,1 51780U 22017N   23029.28905644  .00002907  00000-0  20067-3 0  9993,2 51780  53.2165  36.1396 0001201 101.2812 258.8315 15.08838145 52701,6917.886,95.438,540.582,538.92,0.0
51780.0,STARLINK-3617,PAYLOAD,2023-01-29 10:07:00,15.08848205,0.0001154,53.2165,35.545,98.7908,261.3215,0.00011242,1.502e-05,0.0,0 STARLINK-3617,1 51780U 22017N   23029.42153120  .00001502  00000-0  11242-3 0  9998,2 51780  53.2165  35.5450 0001154  98.7908 261.3215 15.08848205 52726,6917.855,95.437,540.519,538.922,0.0
51780.0,STARLINK-3617,PAYLOAD,2023-01-30 06:47:01,15.08838143,0.0001073,53.2162,31.679,90.1418,269.9697,7.6378e-05,9.28e-06,0.0,0 STARLINK-3617,1 51780U 22017N   23030.28265940  .00000928  00000-0  76378-4 0  9991,2 51780  53.2162  31.6790 0001073  90.1418 269.9697 15.08838143 52851,6917.886,95.438,540.493,539.009,0.0
51780.0,STARLINK-3617,PAYLOAD,2023-01-31 09:48:35,15.08841643,0.0001196,53.2167,26.6238,90.1172,269.9957,4.7024e-05,4.61e-06,0.0,0 STARLINK-3617,1 51780U 22017N   23031.40873878  .00000461  00000-0  47024-4 0  9999,2 51780  53.2167  26.6238 0001196  90.1172 269.9957 15.08841643 53028,6917.875,95.437,540.568,538.913,0.0
51780.0,STARLINK-3617,PAYLOAD,2023-02-01 08:03:58,15.08848677,0.0001174,53.2164,22.4608,90.341,269.7717,0.00014585,2.035e-05,0.0,0 STARLINK-3617,1 51780U 22017N   23032.33609188  .00002035  00000-0  14585-3 0  9997,2 51780  53.2164  22.4608 0001174  90.3410 269.7717 15.08848677 51476,6917.854,95.437,540.531,538.907,0.0
51780.0,STARLINK-3617,PAYLOAD,2023-02-02 03:08:37,15.08834582,0.0001201,53.2163,18.8926,100.2481,259.8647,1.0471e-05,-1.21e-06,0.0,0 STARLINK-3617,1 51780U 22017N   23033.13098543 -.00000121  00000-0  10471-4 0  9999,2 51780  53.2163  18.8926 0001201 100.2481 259.8647 15.08834582 53280,6917.897,95.438,540.593,538.931,0.0
51780.0,STARLINK-3617,PAYLOAD,2023-02-02 07:54:46,15.08837308,0.0001328,53.2162,17.9995,84.7033,275.411,5.9774e-05,6.63e-06,0.0,0 STARLINK-3617,1 51780U 22017N   23033.32970398  .00000663  00000-0  59774-4 0  9996,2 51780  53.2162  17.9995 0001328  84.7033 275.4110 15.08837308 51628,6917.889,95.438,540.672,538.835,0.0
51780.0,STARLINK-3617,PAYLOAD,2023-02-03 04:34:46,15.08845581,0.0001278,53.216,14.133,91.0239,269.09,5.0215e-05,5.11e-06,0.0,0 STARLINK-3617,1 51780U 22017N   23034.19081964  .00000511  00000-0  50215-4 0  9997,2 51780  53.2160  14.1330 0001278  91.0239 269.0900 15.08845581 53441,6917.863,95.437,540.612,538.844,0.0
51780.0,STARLINK-3617,PAYLOAD,2023-02-03 07:45:32,15.08848922,0.0001313,53.2161,13.5382,92.0302,268.0841,8.092e-05,1e-05,0.0,0 STARLINK-3617,1 51780U 22017N   23034.32329656  .00001000  00000-0  80920-4 0  9995,2 51780  53.2161  13.5382 0001313  92.0302 268.0841 15.08848922 51773,6917.853,95.437,540.626,538.81,0.0
51780.0,STARLINK-3617,PAYLOAD,2023-02-04 07:36:20,15.08841847,0.0001531,53.2186,9.0785,73.2904,286.8256,0.00016781,2.384e-05,0.0,0 STARLINK-3617,1 51780U 22017N   23035.31690151  .00002384  00000-0  16781-3 0  9995,2 51780  53.2186   9.0785 0001531  73.2904 286.8256 15.08841847 53610,6917.875,95.437,540.799,538.681,0.0
51780.0,STARLINK-3617,PAYLOAD,2023-02-05 04:16:21,15.08838768,0.0001459,53.2187,5.21,88.7001,271.4159,-3.4411e-05,-8.36e-06,0.0,0 STARLINK-3617,1 51780U 22017N   23036.17802848 -.00000836  00000-0 -34411-4 0  9991,2 51780  53.2187   5.2100 0001459  88.7001 271.4159 15.08838768 53742,6917.884,95.438,540.758,538.74,0.0
51780.0,STARLINK-3617,PAYLOAD,2023-02-05 07:27:07,15.08841769,0.0001453,53.2178,4.6166,88.6846,271.4313,-3.0822e-06,-3.37e-06,0.0,0 STARLINK-3617,1 51780U 22017N   23036.31050604 -.00000337  00000-0 -30822-5 0  9991,2 51780  53.2178   4.6166 0001453  88.6846 271.4313 15.08841769 52079,6917.875,95.437,540.745,538.735,0.0
51780.0,STARLINK-3617,PAYLOAD,2023-02-06 04:07:07,15.08850083,0.00014,53.2179,0.7503,96.604,263.5112,6.8117e-05,7.97e-06,0.0,0 STARLINK-3617,1 51780U 22017N   23037.17162026  .00000797  00000-0  68117-4 0  9993,2 51780  53.2179   0.7503 0001400  96.6040 263.5112 15.08850083 53898,6917.85,95.437,540.683,538.746,0.0
51780.0,STARLINK-3617,PAYLOAD,2023-02-06 07:17:54,15.08850707,0.0001434,53.2171,0.1553,100.3348,259.7806,0.00019238,2.776e-05,0.0,0 STARLINK-3617,1 51780U 22017N   23037.30410168  .00002776  00000-0  19238-3 0  9999,2 51780  53.2171   0.1553 0001434 100.3348 259.7806 15.08850707 52226,6917.848,95.437,540.705,538.721,0.0
